[Satellite]
VERSION=1.1
NAME=STARLINK-1191
NICKNAME=STARLINK-1191
TLE1=1 45222U 20012AW  20078.25001157  .00739535  00000-0  70614-2 0  9990
TLE2=2 45222  52.9979 121.2792 0006952 266.8753 130.0743 15.63853988  5011
STATUS=0
